{"type": "FeatureCollection", "features": [ {"type": "Feature", "properties": {"norad_id": 30121, "name": "FENGYUN 1C DEB", "group": "fengyun-1c-debris", "lat": -11.490318584551702, "lon": -153.7357490695705, "alt_km": 752.4734204532251, "timestamp": "2025-12-27T07:26:25.495846+00:00", "meta": {"OBJECT_NAME": "FENGYUN 1C DEB", "OBJECT_ID": "1999-025SA", "EPOCH": "2025-12-26T19:42:25.601760", "MEAN_MOTION": 14.40169523, "ECCENTRICITY": 0.00301695, "INCLINATION": 102.1641, "RA_OF_ASC_NODE": 28.0853, "ARG_OF_PERICENTER": 129.3053, "MEAN_ANOMALY": 48.6079, "EPHEMERIS_TYPE": 0, "CLASSIFICATION_TYPE": "U", "NORAD_CAT_ID": 30121, "ELEMENT_SET_NO": 999, "REV_AT_EPOCH": 97742, "BSTAR": 0.0020740553, "MEAN_MOTION_DOT": 6.522e-05, "MEAN_MOTION_DDOT": 0}, "tle": {"line1": "1 30121U 99025SA  25360.82112965  .00006522  00000+0  20741-2 0  9992", "line2": "2 30121 102.1641  28.0853 0030169 129.3053  48.6079 14.40169523977420"}}, "geometry": {"type": "Point", "coordinates": [-153.7357490695705, -11.490318584551702]}}, {"type": "Feature", "properties": {"norad_id": 30123, "name": "FENGYUN 1C DEB", "group": "fengyun-1c-debris", "lat": -57.04449978248342, "lon": -50.442240675233734, "alt_km": 831.9932514748652, "timestamp": "2025-12-27T07:26:25.495856+00:00", "meta": {"OBJECT_NAME": "FENGYUN 1C DEB", "OBJECT_ID": "1999-025SC", "EPOCH": "2025-12-25T15:17:37.225824", "MEAN_MOTION": 14.26107151, "ECCENTRICITY": 0.0230673, "INCLINATION": 96.9277, "RA_OF_ASC_NODE": 297.4229, "ARG_OF_PERICENTER": 45.7788, "MEAN_ANOMALY": 316.2087, "EPHEMERIS_TYPE": 0, "CLASSIFICATION_TYPE": "U", "NORAD_CAT_ID": 30123, "ELEMENT_SET_NO": 999, "REV_AT_EPOCH": 97431, "BSTAR": 0.0022049, "MEAN_MOTION_DOT": 6.952e-05, "MEAN_MOTION_DDOT": 0}, "tle": {"line1": "1 30123U 99025SC  25359.63723641  .00006952  00000+0  22049-2 0  9990", "line2": "2 30123  96.9277 297.4229 0230673  45.7788 316.2087 14.26107151974315"}}, "geometry": {"type": "Point", "coordinates": [-50.442240675233734, -57.04449978248342]}}, {"type": "Feature", "properties": {"norad_id": 30124, "name": "FENGYUN 1C DEB", "group": "fengyun-1c-debris", "lat": -27.859281980284955, "lon": 60.37403455579222, "alt_km": 854.412460222723, "timestamp": "2025-12-27T07:26:25.495867+00:00", "meta": {"OBJECT_NAME": "FENGYUN 1C DEB", "OBJECT_ID": "1999-025SD", "EPOCH": "2025-12-26T18:33:15.403680", "MEAN_MOTION": 14.14279718, "ECCENTRICITY": 0.01425567, "INCLINATION": 99.1304, "RA_OF_ASC_NODE": 54.9491, "ARG_OF_PERICENTER": 66.3743, "MEAN_ANOMALY": 54.9382, "EPHEMERIS_TYPE": 0, "CLASSIFICATION_TYPE": "U", "NORAD_CAT_ID": 30124, "ELEMENT_SET_NO": 999, "REV_AT_EPOCH": 97113, "BSTAR": 0.0008425469, "MEAN_MOTION_DOT": 1.729e-05, "MEAN_MOTION_DDOT": 0}, "tle": {"line1": "1 30124U 99025SD  25360.77309495  .00001729  00000+0  84255-3 0  9990", "line2": "2 30124  99.1304  54.9491 0142556  66.3743  54.9382 14.14279718971138"}}, "geometry": {"type": "Point", "coordinates": [60.37403455579222, -27.859281980284955]}}, {"type": "Feature", "properties": {"norad_id": 30125, "name": "FENGYUN 1C DEB", "group": "fengyun-1c-debris", "lat": -24.958334348713784, "lon": -84.09532716641434, "alt_km": 842.0114026328783, "timestamp": "2025-12-27T07:26:25.495877+00:00", "meta": {"OBJECT_NAME": "FENGYUN 1C DEB", "OBJECT_ID": "1999-025SE", "EPOCH": "2025-12-26T12:09:21.154176", "MEAN_MOTION": 14.22718305, "ECCENTRICITY": 0.0341479, "INCLINATION": 98.7229, "RA_OF_ASC_NODE": 99.205, "ARG_OF_PERICENTER": 304.1787, "MEAN_ANOMALY": 111.7317, "EPHEMERIS_TYPE": 0, "CLASSIFICATION_TYPE": "U", "NORAD_CAT_ID": 30125, "ELEMENT_SET_NO": 999, "REV_AT_EPOCH": 97117, "BSTAR": 0.00065736, "MEAN_MOTION_DOT": 2.628e-05, "MEAN_MOTION_DDOT": 0}, "tle": {"line1": "1 30125U 99025SE  25360.50649484  .00002628  00000+0  65736-3 0  9999", "line2": "2 30125  98.7229  99.2050 0341479 304.1787 111.7317 14.22718305971172"}}, "geometry": {"type": "Point", "coordinates": [-84.09532716641434, -24.958334348713784]}}, {"type": "Feature", "properties": {"norad_id": 30127, "name": "FENGYUN 1C DEB", "group": "fengyun-1c-debris", "lat": -16.232430282895162, "lon": -140.41938626138173, "alt_km": 730.9926147525275, "timestamp": "2025-12-27T07:26:25.495887+00:00", "meta": {"OBJECT_NAME": "FENGYUN 1C DEB", "OBJECT_ID": "1999-025SG", "EPOCH": "2025-12-26T03:07:48.948960", "MEAN_MOTION": 14.38179501, "ECCENTRICITY": 0.00859474, "INCLINATION": 98.2064, "RA_OF_ASC_NODE": 216.0454, "ARG_OF_PERICENTER": 39.0779, "MEAN_ANOMALY": 321.6576, "EPHEMERIS_TYPE": 0, "CLASSIFICATION_TYPE": "U", "NORAD_CAT_ID": 30127, "ELEMENT_SET_NO": 999, "REV_AT_EPOCH": 97428, "BSTAR": 0.0023175369, "MEAN_MOTION_DOT": 7.307e-05, "MEAN_MOTION_DDOT": 0}, "tle": {"line1": "1 30127U 99025SG  25360.13042765  .00007307  00000+0  23175-2 0  9998", "line2": "2 30127  98.2064 216.0454 0085947  39.0779 321.6576 14.38179501974283"}}, "geometry": {"type": "Point", "coordinates": [-140.41938626138173, -16.232430282895162]}}, {"type": "Feature", "properties": {"norad_id": 30128, "name": "FENGYUN 1C DEB", "group": "fengyun-1c-debris", "lat": 25.69400488660523, "lon": -5.8827822578359, "alt_km": 690.3011338391998, "timestamp": "2025-12-27T07:26:25.495897+00:00", "meta": {"OBJECT_NAME": "FENGYUN 1C DEB", "OBJECT_ID": "1999-025SH", "EPOCH": "2025-12-26T23:09:10.474848", "MEAN_MOTION": 14.46368009, "ECCENTRICITY": 0.01075593, "INCLINATION": 96.9808, "RA_OF_ASC_NODE": 357.2121, "ARG_OF_PERICENTER": 80.2831, "MEAN_ANOMALY": 309.7657, "EPHEMERIS_TYPE": 0, "CLASSIFICATION_TYPE": "U", "NORAD_CAT_ID": 30128, "ELEMENT_SET_NO": 999, "REV_AT_EPOCH": 97517, "BSTAR": 0.0032510427, "MEAN_MOTION_DOT": 0.00012524, "MEAN_MOTION_DDOT": 0}, "tle": {"line1": "1 30128U 99025SH  25360.96470457  .00012524  00000+0  32510-2 0  9993", "line2": "2 30128  96.9808 357.2121 0107559  80.2831 309.7657 14.46368009975173"}}, "geometry": {"type": "Point", "coordinates": [-5.8827822578359, 25.69400488660523]}}, {"type": "Feature", "properties": {"norad_id": 30129, "name": "FENGYUN 1C DEB", "group": "fengyun-1c-debris", "lat": 11.811408558799208, "lon": 123.12475296744093, "alt_km": 949.1331834677603, "timestamp": "2025-12-27T07:26:25.495907+00:00", "meta": {"OBJECT_NAME": "FENGYUN 1C DEB", "OBJECT_ID": "1999-025SJ", "EPOCH": "2025-12-26T18:55:52.797792", "MEAN_MOTION": 14.01609297, "ECCENTRICITY": 0.01881586, "INCLINATION": 98.0313, "RA_OF_ASC_NODE": 300.9735, "ARG_OF_PERICENTER": 52.612, "MEAN_ANOMALY": 4.9672, "EPHEMERIS_TYPE": 0, "CLASSIFICATION_TYPE": "U", "NORAD_CAT_ID": 30129, "ELEMENT_SET_NO": 999, "REV_AT_EPOCH": 96675, "BSTAR": 0.00074028799, "MEAN_MOTION_DOT": 1.273e-05, "MEAN_MOTION_DDOT": 0}, "tle": {"line1": "1 30129U 99025SJ  25360.78880553  .00001273  00000+0  74029-3 0  9997", "line2": "2 30129  98.0313 300.9735 0188158  52.6120   4.9672 14.01609297966755"}}, "geometry": {"type": "Point", "coordinates": [123.12475296744093, 11.811408558799208]}}, {"type": "Feature", "properties": {"norad_id": 30131, "name": "FENGYUN 1C DEB", "group": "fengyun-1c-debris", "lat": -8.525711390752733, "lon": -87.8293519917179, "alt_km": 804.8125047888152, "timestamp": "2025-12-27T07:26:25.495917+00:00", "meta": {"OBJECT_NAME": "FENGYUN 1C DEB", "OBJECT_ID": "1999-025SL", "EPOCH": "2025-12-26T05:28:34.483296", "MEAN_MOTION": 14.21326623, "ECCENTRICITY": 0.0081715, "INCLINATION": 99.0737, "RA_OF_ASC_NODE": 92.4321, "ARG_OF_PERICENTER": 121.0019, "MEAN_ANOMALY": 294.1659, "EPHEMERIS_TYPE": 0, "CLASSIFICATION_TYPE": "U", "NORAD_CAT_ID": 30131, "ELEMENT_SET_NO": 999, "REV_AT_EPOCH": 96880, "BSTAR": 0.0022777, "MEAN_MOTION_DOT": 5.096e-05, "MEAN_MOTION_DDOT": 0}, "tle": {"line1": "1 30131U 99025SL  25360.22817689  .00005096  00000+0  22777-2 0  9998", "line2": "2 30131  99.0737  92.4321 0081715 121.0019 294.1659 14.21326623968809"}}, "geometry": {"type": "Point", "coordinates": [-87.8293519917179, -8.525711390752733]}}, {"type": "Feature", "properties": {"norad_id": 30132, "name": "FENGYUN 1C DEB", "group": "fengyun-1c-debris", "lat": -53.42957465407428, "lon": 122.2826613489722, "alt_km": 973.7492934058482, "timestamp": "2025-12-27T07:26:25.495928+00:00", "meta": {"OBJECT_NAME": "FENGYUN 1C DEB", "OBJECT_ID": "1999-025SM", "EPOCH": "2025-12-26T20:14:35.362176", "MEAN_MOTION": 13.9486958, "ECCENTRICITY": 0.01054659, "INCLINATION": 99.5794, "RA_OF_ASC_NODE": 314.9563, "ARG_OF_PERICENTER": 12.0366, "MEAN_ANOMALY": 41.7148, "EPHEMERIS_TYPE": 0, "CLASSIFICATION_TYPE": "U", "NORAD_CAT_ID": 30132, "ELEMENT_SET_NO": 999, "REV_AT_EPOCH": 96286, "BSTAR": 0.00048428724, "MEAN_MOTION_DOT": 6.33e-06, "MEAN_MOTION_DDOT": 0}, "tle": {"line1": "1 30132U 99025SM  25360.84346484  .00000633  00000+0  48429-3 0  9992", "line2": "2 30132  99.5794 314.9563 0105465  12.0366  41.7148 13.94869580962863"}}, "geometry": {"type": "Point", "coordinates": [122.2826613489722, -53.42957465407428]}}, {"type": "Feature", "properties": {"norad_id": 30133, "name": "FENGYUN 1C DEB", "group": "fengyun-1c-debris", "lat": 19.185436697675744, "lon": 163.92884084705952, "alt_km": 929.2609513415046, "timestamp": "2025-12-27T07:26:25.495963+00:00", "meta": {"OBJECT_NAME": "FENGYUN 1C DEB", "OBJECT_ID": "1999-025SN", "EPOCH": "2025-12-26T11:10:46.078176", "MEAN_MOTION": 14.06739598, "ECCENTRICITY": 0.008595, "INCLINATION": 98.3251, "RA_OF_ASC_NODE": 166.072, "ARG_OF_PERICENTER": 221.6049, "MEAN_ANOMALY": 204.6819, "EPHEMERIS_TYPE": 0, "CLASSIFICATION_TYPE": "U", "NORAD_CAT_ID": 30133, "ELEMENT_SET_NO": 999, "REV_AT_EPOCH": 96571, "BSTAR": 0.0016636, "MEAN_MOTION_DOT": 2.819e-05, "MEAN_MOTION_DDOT": 0}, "tle": {"line1": "1 30133U 99025SN  25360.46581109  .00002819  00000+0  16636-2 0  9998", "line2": "2 30133  98.3251 166.0720 0085950 221.6049 204.6819 14.06739598965713"}}, "geometry": {"type": "Point", "coordinates": [163.92884084705952, 19.185436697675744]}}]}